IRIDIUM 36 [-]          
1 24967U 97056C   24046.89423104  .00000971  00000+0  32355-3 0  9999
2 24967  86.3989  17.5987 0002289  90.0963 270.0496 14.36630648382235
IRIDIUM 39 [-]          
1 25042U 97069D   24046.95654451  .00001295  00000+0  34496-3 0  9994
2 25042  86.3872  59.8476 0020096 127.8955 232.4070 14.47690216378435
IRIDIUM 38 [-]          
1 25043U 97069E   24046.80063394  .00000807  00000+0  26523-3 0  9999
2 25043  86.3908  78.0923 0000147  32.0560 328.0646 14.37093865375939
IRIDIUM 42 [-]          
1 25077U 97077A   24046.84841737  .00000741  00000+0  25147-3 0  9992
2 25077  86.3914  83.6519 0001565  92.5028 267.6348 14.35389747371265
IRIDIUM 44 [-]          
1 25078U 97077B   24046.78647860  .00000932  00000+0  29460-3 0  9991
2 25078  86.3906  66.8967 0002674 133.7184 226.4236 14.39207227373571
IRIDIUM 45 [-]          
1 25104U 97082A   24046.70768236  .00016422  00000+0  99764-3 0  9995
2 25104  86.3718 279.5922 0169032 324.7126  34.3005 14.99115533378485
IRIDIUM 24 [-]          
1 25105U 97082B   24046.95579609  .00000829  00000+0  25201-3 0  9996
2 25105  86.3889 286.6424 0009559 243.0588 116.9635 14.40985372373026
IRIDIUM 51 [-]          
1 25262U 98018A   24046.96049626  .00017798  00000+0  91888-3 0  9999
2 25262  86.3941 289.6548 0151517 272.2489  86.1404 15.06676819372987
